{
  "type": "FeatureCollection",
  "features": [
    {
      "type": "Feature",
      "properties": {
        "norad_id": 40376,
        "name": "SMAP",
        "group": "resource",
        "lat": -37.80461183747136,
        "lon": 4.77930915444871,
        "alt_km": 689.3076275523363,
        "timestamp": "2025-12-19T18:58:41.249445+00:00",
        "meta_object_name": "SMAP",
        "meta_object_id": "2015-003A",
        "meta_epoch": "2025-12-19T06:01:27.284736",
        "meta_mean_motion": 14.63352829,
        "meta_eccentricity": 0.00012198,
        "meta_inclination": 98.1288,
        "meta_ra_of_asc_node": 357.881,
        "meta_arg_of_pericenter": 91.6462,
        "meta_mean_anomaly": 268.488,
        "meta_ephemeris_type": 0,
        "meta_classification_type": "U",
        "meta_norad_cat_id": 40376,
        "meta_element_set_no": 999,
        "meta_rev_at_epoch": 58130,
        "meta_bstar": 8.5490481e-05,
        "meta_mean_motion_dot": 3.95e-06,
        "meta_mean_motion_ddot": 0,
        "tle_line1": "1 40376U 15003A   25353.25101024  .00000395  00000+0  85490-4 0  9998",
        "tle_line2": "2 40376  98.1288 357.8810 0001219  91.6462 268.4880 14.63352829581307"
      },
      "geometry": {
        "type": "Point",
        "coordinates": [
          4.77930915444871,
          -37.80461183747136
        ]
      }
    },
    {
      "type": "Feature",
      "properties": {
        "norad_id": 40536,
        "name": "KOMPSAT-3A",
        "group": "resource",
        "lat": -77.00349625039472,
        "lon": 112.75339238008762,
        "alt_km": 444.23694727842394,
        "timestamp": "2025-12-19T18:58:41.249455+00:00",
        "meta_object_name": "KOMPSAT-3A",
        "meta_object_id": "2015-014A",
        "meta_epoch": "2025-12-19T06:58:17.606784",
        "meta_mean_motion": 15.44175505,
        "meta_eccentricity": 0.00053679,
        "meta_inclination": 97.6789,
        "meta_ra_of_asc_node": 327.9995,
        "meta_arg_of_pericenter": 112.2257,
        "meta_mean_anomaly": 247.9561,
        "meta_ephemeris_type": 0,
        "meta_classification_type": "U",
        "meta_norad_cat_id": 40536,
        "meta_element_set_no": 999,
        "meta_rev_at_epoch": 59396,
        "meta_bstar": 0.00032774348,
        "meta_mean_motion_dot": 0.00014949,
        "meta_mean_motion_ddot": 0,
        "tle_line1": "1 40536U 15014A   25353.29048156  .00014949  00000+0  32774-3 0  9994",
        "tle_line2": "2 40536  97.6789 327.9995 0005367 112.2257 247.9561 15.44175505593964"
      },
      "geometry": {
        "type": "Point",
        "coordinates": [
          112.75339238008762,
          -77.00349625039472
        ]
      }
    },
    {
      "type": "Feature",
      "properties": {
        "norad_id": 40697,
        "name": "SENTINEL-2A",
        "group": "resource",
        "lat": 80.39247359284737,
        "lon": 3.1844052018321785,
        "alt_km": 780.861670327633,
        "timestamp": "2025-12-19T18:58:41.249465+00:00",
        "meta_object_name": "SENTINEL-2A",
        "meta_object_id": "2015-028A",
        "meta_epoch": "2025-12-19T06:49:51.614688",
        "meta_mean_motion": 14.3080732,
        "meta_eccentricity": 0.00010429,
        "meta_inclination": 98.5744,
        "meta_ra_of_asc_node": 65.7248,
        "meta_arg_of_pericenter": 89.2957,
        "meta_mean_anomaly": 270.8345,
        "meta_ephemeris_type": 0,
        "meta_classification_type": "U",
        "meta_norad_cat_id": 40697,
        "meta_element_set_no": 999,
        "meta_rev_at_epoch": 54800,
        "meta_bstar": 2.4788522e-05,
        "meta_mean_motion_dot": 2.1e-07,
        "meta_mean_motion_ddot": 0,
        "tle_line1": "1 40697U 15028A   25353.28462517  .00000021  00000+0  24789-4 0  9991",
        "tle_line2": "2 40697  98.5744  65.7248 0001042  89.2957 270.8345 14.30807320548008"
      },
      "geometry": {
        "type": "Point",
        "coordinates": [
          3.1844052018321785,
          80.39247359284737
        ]
      }
    },
    {
      "type": "Feature",
      "properties": {
        "norad_id": 40701,
        "name": "GAOFEN-8",
        "group": "resource",
        "lat": -14.347470654029395,
        "lon": 174.25507292464027,
        "alt_km": 459.612806801395,
        "timestamp": "2025-12-19T18:58:41.249475+00:00",
        "meta_object_name": "GAOFEN-8",
        "meta_object_id": "2015-030A",
        "meta_epoch": "2025-12-19T06:33:19.132704",
        "meta_mean_motion": 15.38752377,
        "meta_eccentricity": 0.00119382,
        "meta_inclination": 97.6902,
        "meta_ra_of_asc_node": 171.7316,
        "meta_arg_of_pericenter": 116.0338,
        "meta_mean_anomaly": 244.2137,
        "meta_ephemeris_type": 0,
        "meta_classification_type": "U",
        "meta_norad_cat_id": 40701,
        "meta_element_set_no": 999,
        "meta_rev_at_epoch": 58371,
        "meta_bstar": 0.00019749267,
        "meta_mean_motion_dot": 7.492e-05,
        "meta_mean_motion_ddot": 0,
        "tle_line1": "1 40701U 15030A   25353.27313811  .00007492  00000+0  19749-3 0  9999",
        "tle_line2": "2 40701  97.6902 171.7316 0011938 116.0338 244.2137 15.38752377583712"
      },
      "geometry": {
        "type": "Point",
        "coordinates": [
          174.25507292464027,
          -14.347470654029395
        ]
      }
    },
    {
      "type": "Feature",
      "properties": {
        "norad_id": 40718,
        "name": "CARBONITE 1 (CBNT-1)",
        "group": "resource",
        "lat": -58.97510396904261,
        "lon": -172.58209549144627,
        "alt_km": 635.9274722262035,
        "timestamp": "2025-12-19T18:58:41.249485+00:00",
        "meta_object_name": "CARBONITE 1 (CBNT-1)",
        "meta_object_id": "2015-032D",
        "meta_epoch": "2025-12-19T07:54:40.476960",
        "meta_mean_motion": 14.82773156,
        "meta_eccentricity": 0.0014938,
        "meta_inclination": 97.6394,
        "meta_ra_of_asc_node": 174.0827,
        "meta_arg_of_pericenter": 159.962,
        "meta_mean_anomaly": 200.2184,
        "meta_ephemeris_type": 0,
        "meta_classification_type": "U",
        "meta_norad_cat_id": 40718,
        "meta_element_set_no": 999,
        "meta_rev_at_epoch": 56268,
        "meta_bstar": 0.00023727432,
        "meta_mean_motion_dot": 1.871e-05,
        "meta_mean_motion_ddot": 0,
        "tle_line1": "1 40718U 15032D   25353.32963515  .00001871  00000+0  23727-3 0  9993",
        "tle_line2": "2 40718  97.6394 174.0827 0014938 159.9620 200.2184 14.82773156562684"
      },
      "geometry": {
        "type": "Point",
        "coordinates": [
          -172.58209549144627,
          -58.97510396904261
        ]
      }
    },
    {
      "type": "Feature",
      "properties": {
        "norad_id": 40878,
        "name": "YAOGAN-27",
        "group": "resource",
        "lat": 79.21701243876124,
        "lon": -127.53749684351865,
        "alt_km": 1198.0980290836642,
        "timestamp": "2025-12-19T18:58:41.249495+00:00",
        "meta_object_name": "YAOGAN-27",
        "meta_object_id": "2015-040A",
        "meta_epoch": "2025-12-19T05:43:53.045760",
        "meta_mean_motion": 13.16062299,
        "meta_eccentricity": 0.00075732,
        "meta_inclination": 100.1006,
        "meta_ra_of_asc_node": 342.565,
        "meta_arg_of_pericenter": 270.9228,
        "meta_mean_anomaly": 89.1018,
        "meta_ephemeris_type": 0,
        "meta_classification_type": "U",
        "meta_norad_cat_id": 40878,
        "meta_element_set_no": 999,
        "meta_rev_at_epoch": 49399,
        "meta_bstar": 0.00067206325,
        "meta_mean_motion_dot": 2.13e-06,
        "meta_mean_motion_ddot": 0,
        "tle_line1": "1 40878U 15040A   25353.23880840  .00000213  00000+0  67206-3 0  9997",
        "tle_line2": "2 40878 100.1006 342.5650 0007573 270.9228  89.1018 13.16062299493994"
      },
      "geometry": {
        "type": "Point",
        "coordinates": [
          -127.53749684351865,
          79.21701243876124
        ]
      }
    },
    {
      "type": "Feature",
      "properties": {
        "norad_id": 40894,
        "name": "GAOFEN-9 01",
        "group": "resource",
        "lat": -32.24167537126838,
        "lon": -152.42384469699482,
        "alt_km": 646.0006547086132,
        "timestamp": "2025-12-19T18:58:41.249505+00:00",
        "meta_object_name": "GAOFEN-9 01",
        "meta_object_id": "2015-047A",
        "meta_epoch": "2025-12-19T08:18:09.890784",
        "meta_mean_motion": 14.82437691,
        "meta_eccentricity": 0.00278685,
        "meta_inclination": 97.6534,
        "meta_ra_of_asc_node": 32.016,
        "meta_arg_of_pericenter": 13.1158,
        "meta_mean_anomaly": 347.0775,
        "meta_ephemeris_type": 0,
        "meta_classification_type": "U",
        "meta_norad_cat_id": 40894,
        "meta_element_set_no": 999,
        "meta_rev_at_epoch": 55354,
        "meta_bstar": 0.00010876404,
        "meta_mean_motion_dot": 8.26e-06,
        "meta_mean_motion_ddot": 0,
        "tle_line1": "1 40894U 15047A   25353.34594781  .00000826  00000+0  10876-3 0  9991",
        "tle_line2": "2 40894  97.6534  32.0160 0027868  13.1158 347.0775 14.82437691553543"
      },
      "geometry": {
        "type": "Point",
        "coordinates": [
          -152.42384469699482,
          -32.24167537126838
        ]
      }
    }
  ]
}